CCSDS_OMM_VERS = 2.0
CREATION_DATE  = 
ORIGINATOR     = 

OBJECT_NAME    = STARLINK-37132
OBJECT_ID      = 2026-054B
CENTER_NAME    = EARTH
REF_FRAME      = TEME
TIME_SYSTEM    = UTC
MEAN_ELEMENT_THEORY = SGP/SGP4

EPOCH          = 2026-03-31T12:03:03.080736
MEAN_MOTION    = 15.80918911
ECCENTRICITY   = .00010184
INCLINATION    = 53.1598
RA_OF_ASC_NODE = 203.3509
ARG_OF_PERICENTER = 82.6636
MEAN_ANOMALY   = 277.4503

EPHEMERIS_TYPE = 0
CLASSIFICATION_TYPE = U
NORAD_CAT_ID   = 68233
ELEMENT_SET_NO = 999
REV_AT_EPOCH   = 222
BSTAR          = .11956499E-2
MEAN_MOTION_DOT = .242543E-2
MEAN_MOTION_DDOT = 0

CCSDS_OMM_VERS = 2.0
CREATION_DATE  = 
ORIGINATOR     = 

OBJECT_NAME    = STARLINK-37101
OBJECT_ID      = 2026-054C
CENTER_NAME    = EARTH
REF_FRAME      = TEME
TIME_SYSTEM    = UTC
MEAN_ELEMENT_THEORY = SGP/SGP4

EPOCH          = 2026-03-31T10:31:40.802016
MEAN_MOTION    = 15.78759012
ECCENTRICITY   = .0002101
INCLINATION    = 53.1595
RA_OF_ASC_NODE = 203.6657
ARG_OF_PERICENTER = 5.6917
MEAN_ANOMALY   = 354.4128

EPHEMERIS_TYPE = 0
CLASSIFICATION_TYPE = U
NORAD_CAT_ID   = 68234
ELEMENT_SET_NO = 999
REV_AT_EPOCH   = 221
BSTAR          = -.3663E-2
MEAN_MOTION_DOT = -.612504E-2
MEAN_MOTION_DDOT = 0

CCSDS_OMM_VERS = 2.0
CREATION_DATE  = 
ORIGINATOR     = 

OBJECT_NAME    = STARLINK-36963
OBJECT_ID      = 2026-054D
CENTER_NAME    = EARTH
REF_FRAME      = TEME
TIME_SYSTEM    = UTC
MEAN_ELEMENT_THEORY = SGP/SGP4

EPOCH          = 2026-03-31T12:00:02.000160
MEAN_MOTION    = 15.75256796
ECCENTRICITY   = .00012542
INCLINATION    = 53.1602
RA_OF_ASC_NODE = 203.4065
ARG_OF_PERICENTER = 66.9486
MEAN_ANOMALY   = 259.3235

EPHEMERIS_TYPE = 0
CLASSIFICATION_TYPE = U
NORAD_CAT_ID   = 68235
ELEMENT_SET_NO = 999
REV_AT_EPOCH   = 341
BSTAR          = -.28570928E-4
MEAN_MOTION_DOT = -.502E-4
MEAN_MOTION_DDOT = 0

CCSDS_OMM_VERS = 2.0
CREATION_DATE  = 
ORIGINATOR     = 

OBJECT_NAME    = STARLINK-37127
OBJECT_ID      = 2026-054E
CENTER_NAME    = EARTH
REF_FRAME      = TEME
TIME_SYSTEM    = UTC
MEAN_ELEMENT_THEORY = SGP/SGP4

EPOCH          = 2026-03-31T12:21:41.175360
MEAN_MOTION    = 15.75288682
ECCENTRICITY   = .00009383
INCLINATION    = 53.1596
RA_OF_ASC_NODE = 203.4368
ARG_OF_PERICENTER = 83.3800
MEAN_ANOMALY   = 276.7327

EPHEMERIS_TYPE = 0
CLASSIFICATION_TYPE = U
NORAD_CAT_ID   = 68236
ELEMENT_SET_NO = 999
REV_AT_EPOCH   = 222
BSTAR          = .14776511E-2
MEAN_MOTION_DOT = .232712E-2
MEAN_MOTION_DDOT = 0

CCSDS_OMM_VERS = 2.0
CREATION_DATE  = 
ORIGINATOR     = 

OBJECT_NAME    = STARLINK-37095
OBJECT_ID      = 2026-054F
CENTER_NAME    = EARTH
REF_FRAME      = TEME
TIME_SYSTEM    = UTC
MEAN_ELEMENT_THEORY = SGP/SGP4

EPOCH          = 2026-03-31T12:00:02.000160
MEAN_MOTION    = 15.75257746
ECCENTRICITY   = .00012308
INCLINATION    = 53.1606
RA_OF_ASC_NODE = 203.4593
ARG_OF_PERICENTER = 59.5147
MEAN_ANOMALY   = 241.0066

EPHEMERIS_TYPE = 0
CLASSIFICATION_TYPE = U
NORAD_CAT_ID   = 68237
ELEMENT_SET_NO = 999
REV_AT_EPOCH   = 341
BSTAR          = -.7218601E-4
MEAN_MOTION_DOT = -.11699E-3
MEAN_MOTION_DDOT = 0

CCSDS_OMM_VERS = 2.0
CREATION_DATE  = 
ORIGINATOR     = 

OBJECT_NAME    = STARLINK-37097
OBJECT_ID      = 2026-054G
CENTER_NAME    = EARTH
REF_FRAME      = TEME
TIME_SYSTEM    = UTC
MEAN_ELEMENT_THEORY = SGP/SGP4

EPOCH          = 2026-03-31T10:26:36.750912
MEAN_MOTION    = 15.80907855
ECCENTRICITY   = .0001002
INCLINATION    = 53.1595
RA_OF_ASC_NODE = 203.6422
ARG_OF_PERICENTER = 62.0153
MEAN_ANOMALY   = 298.0971

EPHEMERIS_TYPE = 0
CLASSIFICATION_TYPE = U
NORAD_CAT_ID   = 68238
ELEMENT_SET_NO = 999
REV_AT_EPOCH   = 221
BSTAR          = .11142E-2
MEAN_MOTION_DOT = .225406E-2
MEAN_MOTION_DDOT = 0

CCSDS_OMM_VERS = 2.0
CREATION_DATE  = 
ORIGINATOR     = 

OBJECT_NAME    = STARLINK-37096
OBJECT_ID      = 2026-054H
CENTER_NAME    = EARTH
REF_FRAME      = TEME
TIME_SYSTEM    = UTC
MEAN_ELEMENT_THEORY = SGP/SGP4

EPOCH          = 2026-03-31T10:24:27.063648
MEAN_MOTION    = 15.80916335
ECCENTRICITY   = .0001144
INCLINATION    = 53.1596
RA_OF_ASC_NODE = 203.6321
ARG_OF_PERICENTER = 65.5413
MEAN_ANOMALY   = 294.5729

EPHEMERIS_TYPE = 0
CLASSIFICATION_TYPE = U
NORAD_CAT_ID   = 68239
ELEMENT_SET_NO = 999
REV_AT_EPOCH   = 221
BSTAR          = .1177E-2
MEAN_MOTION_DOT = .238609E-2
MEAN_MOTION_DDOT = 0

CCSDS_OMM_VERS = 2.0
CREATION_DATE  = 
ORIGINATOR     = 

OBJECT_NAME    = STARLINK-37092
OBJECT_ID      = 2026-054J
CENTER_NAME    = EARTH
REF_FRAME      = TEME
TIME_SYSTEM    = UTC
MEAN_ELEMENT_THEORY = SGP/SGP4

EPOCH          = 2026-03-31T11:56:34.349856
MEAN_MOTION    = 15.80926732
ECCENTRICITY   = .0001374
INCLINATION    = 53.1599
RA_OF_ASC_NODE = 203.3207
ARG_OF_PERICENTER = 53.7046
MEAN_ANOMALY   = 306.4104

EPHEMERIS_TYPE = 0
CLASSIFICATION_TYPE = U
NORAD_CAT_ID   = 68240
ELEMENT_SET_NO = 999
REV_AT_EPOCH   = 222
BSTAR          = .1443364E-2
MEAN_MOTION_DOT = .294844E-2
MEAN_MOTION_DDOT = 0

CCSDS_OMM_VERS = 2.0
CREATION_DATE  = 
ORIGINATOR     = 

OBJECT_NAME    = STARLINK-37094
OBJECT_ID      = 2026-054K
CENTER_NAME    = EARTH
REF_FRAME      = TEME
TIME_SYSTEM    = UTC
MEAN_ELEMENT_THEORY = SGP/SGP4

EPOCH          = 2026-03-31T11:54:24.440544
MEAN_MOTION    = 15.80945978
ECCENTRICITY   = .0000961
INCLINATION    = 53.1597
RA_OF_ASC_NODE = 203.3105
ARG_OF_PERICENTER = 97.8570
MEAN_ANOMALY   = 262.2562

EPHEMERIS_TYPE = 0
CLASSIFICATION_TYPE = U
NORAD_CAT_ID   = 68241
ELEMENT_SET_NO = 999
REV_AT_EPOCH   = 222
BSTAR          = .14019787E-2
MEAN_MOTION_DOT = .286342E-2
MEAN_MOTION_DDOT = 0

CCSDS_OMM_VERS = 2.0
CREATION_DATE  = 
ORIGINATOR     = 

OBJECT_NAME    = STARLINK-36356
OBJECT_ID      = 2026-054L
CENTER_NAME    = EARTH
REF_FRAME      = TEME
TIME_SYSTEM    = UTC
MEAN_ELEMENT_THEORY = SGP/SGP4

EPOCH          = 2026-03-30T17:41:00.354624
MEAN_MOTION    = 15.80312000
ECCENTRICITY   = .00005033
INCLINATION    = 53.1596
RA_OF_ASC_NODE = 207.1073
ARG_OF_PERICENTER = 49.8547
MEAN_ANOMALY   = 310.2520

EPHEMERIS_TYPE = 0
CLASSIFICATION_TYPE = U
NORAD_CAT_ID   = 68242
ELEMENT_SET_NO = 999
REV_AT_EPOCH   = 210
BSTAR          = -.25692398E-2
MEAN_MOTION_DOT = -.468872E-2
MEAN_MOTION_DDOT = 0

CCSDS_OMM_VERS = 2.0
CREATION_DATE  = 
ORIGINATOR     = 

OBJECT_NAME    = STARLINK-36345
OBJECT_ID      = 2026-054M
CENTER_NAME    = EARTH
REF_FRAME      = TEME
TIME_SYSTEM    = UTC
MEAN_ELEMENT_THEORY = SGP/SGP4

EPOCH          = 2026-03-31T14:00:01.999872
MEAN_MOTION    = 15.75250476
ECCENTRICITY   = .00011043
INCLINATION    = 53.1605
RA_OF_ASC_NODE = 202.9882
ARG_OF_PERICENTER = 78.2831
MEAN_ANOMALY   = 2.7060

EPHEMERIS_TYPE = 0
CLASSIFICATION_TYPE = U
NORAD_CAT_ID   = 68243
ELEMENT_SET_NO = 999
REV_AT_EPOCH   = 347
BSTAR          = .11348214E-3
MEAN_MOTION_DOT = .16799E-3
MEAN_MOTION_DDOT = 0

CCSDS_OMM_VERS = 2.0
CREATION_DATE  = 
ORIGINATOR     = 

OBJECT_NAME    = STARLINK-36310
OBJECT_ID      = 2026-054N
CENTER_NAME    = EARTH
REF_FRAME      = TEME
TIME_SYSTEM    = UTC
MEAN_ELEMENT_THEORY = SGP/SGP4

EPOCH          = 2026-03-31T10:19:03.175104
MEAN_MOTION    = 15.80912313
ECCENTRICITY   = .0001266
INCLINATION    = 53.1598
RA_OF_ASC_NODE = 203.6067
ARG_OF_PERICENTER = 60.3262
MEAN_ANOMALY   = 299.7887

EPHEMERIS_TYPE = 0
CLASSIFICATION_TYPE = U
NORAD_CAT_ID   = 68244
ELEMENT_SET_NO = 999
REV_AT_EPOCH   = 221
BSTAR          = .10993312E-2
MEAN_MOTION_DOT = .222353E-2
MEAN_MOTION_DDOT = 0

