STARLINK-37132          
1 68233U 26054B   26090.50211899  .00242543  00000+0  11956-2 0  9994
2 68233  53.1598 203.3509 0001018  82.6636 277.4503 15.80918911  2225
STARLINK-37101          
1 68234U 26054C   26090.43866669 -.00612504  00000+0 -36630-2 0  9994
2 68234  53.1595 203.6657 0002101   5.6917 354.4128 15.78759012  2211
STARLINK-36963          
1 68235U 26054D   26090.50002315 -.00005020  00000+0 -28571-4 0  9999
2 68235  53.1602 203.4065 0001254  66.9486 259.3235 15.75256796  3414
STARLINK-37127          
1 68236U 26054E   26090.51505990  .00232712  00000+0  14777-2 0  9997
2 68236  53.1596 203.4368 0000938  83.3800 276.7327 15.75288682  2226
STARLINK-37095          
1 68237U 26054F   26090.50002315 -.00011699  00000+0 -72186-4 0  9991
2 68237  53.1606 203.4593 0001230  59.5147 241.0066 15.75257746  3418
STARLINK-37097          
1 68238U 26054G   26090.43514758  .00225406  00000+0  11142-2 0  9997
2 68238  53.1595 203.6422 0001002  62.0153 298.0971 15.80907855  2215
STARLINK-37096          
1 68239U 26054H   26090.43364657  .00238609  00000+0  11770-2 0  9995
2 68239  53.1596 203.6321 0001144  65.5413 294.5729 15.80916335  2214
STARLINK-37092          
1 68240U 26054J   26090.49761979  .00294844  00000+0  14434-2 0  9994
2 68240  53.1599 203.3207 0001374  53.7046 306.4104 15.80926732  2228
STARLINK-37094          
1 68241U 26054K   26090.49611621  .00286342  00000+0  14020-2 0  9998
2 68241  53.1597 203.3105 0000961  97.8570 262.2562 15.80945978  2226
STARLINK-36356          
1 68242U 26054L   26089.73680966 -.00468872  00000+0 -25692-2 0  9991
2 68242  53.1596 207.1073 0000503  49.8547 310.2520 15.80312000  2104
STARLINK-36345          
1 68243U 26054M   26090.58335648  .00016799  00000+0  11348-3 0  9990
2 68243  53.1605 202.9882 0001104  78.2831   2.7060 15.75250476  3472
STARLINK-36310          
1 68244U 26054N   26090.42989786  .00222353  00000+0  10993-2 0  9991
2 68244  53.1598 203.6067 0001266  60.3262 299.7887 15.80912313  2213
